NORAD_CAT_ID,OBJECT_NAME,OBJECT_TYPE,EPOCH,MEAN_MOTION,ECCENTRICITY,INCLINATION,RA_OF_ASC_NODE,ARG_OF_PERICENTER,MEAN_ANOMALY,BSTAR,MEAN_MOTION_DOT,MEAN_MOTION_DDOT,TLE_LINE0,TLE_LINE1,TLE_LINE2,SEMIMAJOR_AXIS,PERIOD,APOGEE,PERIGEE,DECAYED
52564.0,STARLINK-3959,PAYLOAD,2022-12-27 05:14:10,15.08865266,0.0002763,53.2177,339.597,32.3818,327.7343,-0.00017031,-3e-05,0.0,0 STARLINK-3959,1 52564U 22051AH  22361.21817893 -.00003000  00000-0 -17031-3 0  9995,2 52564  53.2177 339.5970 0002763  32.3818 327.7343 15.08865266 35046,6917.803000000001,95.436,541.58,537.757,0.0
52564.0,STARLINK-3959,PAYLOAD,2022-12-28 08:15:45,15.08840468,0.0002546,53.2177,334.5405,35.879,324.2373,6.2946e-05,7.14e-06,0.0,0 STARLINK-3959,1 52564U 22051AH  22362.34427157  .00000714  00000-0  62946-4 0  9993,2 52564  53.2177 334.5405 0002546  35.8790 324.2373 15.08840468 35143,6917.879,95.438,541.505,537.9830000000002,0.0
52564.0,STARLINK-3959,PAYLOAD,2022-12-29 06:31:11,15.08823899,0.000335,53.2174,330.3773,40.647,319.4771,-8.015e-05,-1.564e-05,0.0,0 STARLINK-3959,1 52564U 22051AH  22363.27165662 -.00001564  00000-0 -80150-4 0  9999,2 52564  53.2174 330.3773 0003350  40.6470 319.4771 15.08823899 35355,6917.93,95.439,542.112,537.477,0.0
52564.0,STARLINK-3959,PAYLOAD,2022-12-29 20:49:38,15.08830458,0.0001945,53.2169,327.7017,24.6237,335.4847,0.00039679,6.031e-05,0.0,0 STARLINK-3959,1 52564U 22051AH  22363.86780503  .00006031  00000-0  39679-3 0  9992,2 52564  53.2169 327.7017 0001945  24.6237 335.4847 15.08830458 35442,6917.91,95.438,541.12,538.429,0.0
52564.0,STARLINK-3959,PAYLOAD,2022-12-30 06:21:57,15.08845231,0.0002672,53.2169,325.9182,32.2855,327.83,0.00055908,8.622e-05,0.0,0 STARLINK-3959,1 52564U 22051AH  22364.26524421  .00008622  00000-0  55908-3 0  9993,2 52564  53.2169 325.9182 0002672  32.2855 327.8300 15.08845231 35437,6917.864000000001,95.437,541.578,537.881,0.0
52564.0,STARLINK-3959,PAYLOAD,2022-12-30 14:18:52,15.08853599,0.0002655,53.2169,324.4311,33.0394,327.0764,0.00056906,8.784e-05,0.0,0 STARLINK-3959,1 52564U 22051AH  22364.59643917  .00008784  00000-0  56906-3 0  9999,2 52564  53.2169 324.4311 0002655  33.0394 327.0764 15.08853599 35558,6917.839,95.437,541.5409999999998,537.867,0.0
52564.0,STARLINK-3959,PAYLOAD,2022-12-31 06:12:42,15.08871681,0.0002604,53.2151,321.4572,31.9994,328.1156,0.00041749,6.368e-05,0.0,0 STARLINK-3959,1 52564U 22051AH  22365.25882325  .00006368  00000-0  41749-3 0  9996,2 52564  53.2151 321.4572 0002604  31.9994 328.1156 15.08871681 35652,6917.784000000002,95.436,541.45,537.847,0.0
52564.0,STARLINK-3959,PAYLOAD,2022-12-31 14:09:37,15.08865716,0.00027,53.2158,319.9705,31.9764,328.1392,0.00018821,2.71e-05,0.0,0 STARLINK-3959,1 52564U 22051AH  22365.59002101  .00002710  00000-0  18821-3 0  9991,2 52564  53.2158 319.9705 0002700  31.9764 328.1392 15.08865716 35701,6917.802,95.436,541.535,537.799,0.0
52564.0,STARLINK-3959,PAYLOAD,2022-12-31 20:31:09,15.08860329,0.0002541,53.2135,318.781,28.682,331.4312,-3.6699e-05,-8.73e-06,0.0,0 STARLINK-3959,1 52564U 22051AH  22365.85497620 -.00000873  00000-0 -36699-4 0  9998,2 52564  53.2135 318.7810 0002541  28.6820 331.4312 15.08860329 35679,6917.818,95.436,541.441,537.925,0.0
52564.0,STARLINK-3959,PAYLOAD,2023-01-01 06:03:29,15.0884032,0.0002739,53.2164,316.9958,33.2525,326.8638,-0.00026426,-4.492e-05,0.0,0 STARLINK-3959,1 52564U 22051AH  23001.25242685 -.00004492  00000-0 -26426-3 0  9996,2 52564  53.2164 316.9958 0002739  33.2525 326.8638 15.08840320 35800,6917.879,95.438,541.639,537.85,0.0
52564.0,STARLINK-3959,PAYLOAD,2023-01-01 14:00:26,15.08824312,0.0002714,53.217,315.5092,34.4965,325.6203,-0.00036524,-6.094e-05,0.0,0 STARLINK-3959,1 52564U 22051AH  23001.58363635 -.00006094  00000-0 -36524-3 0  9991,2 52564  53.2170 315.5092 0002714  34.4965 325.6203 15.08824312 35858,6917.928000000001,95.439,541.6709999999998,537.9159999999998,0.0
52564.0,STARLINK-3959,PAYLOAD,2023-01-01 20:21:59,15.08812711,0.0002722,53.2169,314.3208,38.1088,322.0096,-0.00018456,-3.223e-05,0.0,0 STARLINK-3959,1 52564U 22051AH  23001.84860587 -.00003223  00000-0 -18456-3 0  9993,2 52564  53.2169 314.3208 0002722  38.1088 322.0096 15.08812711 35826,6917.964,95.439,541.712,537.946,0.0
52564.0,STARLINK-3959,PAYLOAD,2023-01-02 13:51:13,15.08834519,0.0002593,53.2168,311.0488,32.9748,327.1406,4.045e-05,3.55e-06,0.0,0 STARLINK-3959,1 52564U 22051AH  23002.57724092  .00000355  00000-0  40450-4 0  9995,2 52564  53.2168 311.0488 0002593  32.9748 327.1406 15.08834519 36002,6917.897,95.438,541.556,537.9680000000002,0.0
52564.0,STARLINK-3959,PAYLOAD,2023-01-02 20:12:46,15.0883086,0.0002416,53.2165,309.8589,31.3258,328.7877,0.00010334,1.356e-05,0.0,0 STARLINK-3959,1 52564U 22051AH  23002.84220418  .00001356  00000-0  10334-3 0  9997,2 52564  53.2165 309.8589 0002416  31.3258 328.7877 15.08830860 35978,6917.908,95.438,541.445,538.102,0.0
52564.0,STARLINK-3959,PAYLOAD,2023-01-03 07:20:27,15.08841461,0.0002545,53.2174,307.7781,33.3492,326.766,0.00014588,2.034e-05,0.0,0 STARLINK-3959,1 52564U 22051AH  23003.30587950  .00002034  00000-0  14588-3 0  9995,2 52564  53.2174 307.7781 0002545  33.3492 326.7660 15.08841461 36040,6917.876,95.437,541.502,537.98,0.0
52564.0,STARLINK-3959,PAYLOAD,2023-01-03 20:03:34,15.08834,0.0002591,53.2165,305.399,35.4175,324.6989,0.00041513,6.324e-05,0.0,0 STARLINK-3959,1 52564U 22051AH  23003.83581214  .00006324  00000-0  41513-3 0  9994,2 52564  53.2165 305.3990 0002591  35.4175 324.6989 15.08834000 36196,6917.899,95.438,541.556,537.971,0.0
52564.0,STARLINK-3959,PAYLOAD,2023-01-04 07:11:16,15.08828592,0.0002638,53.2173,303.3183,31.6792,328.4358,0.00026469,3.926e-05,0.0,0 STARLINK-3959,1 52564U 22051AH  23004.29949300  .00003926  00000-0  26469-3 0  9997,2 52564  53.2173 303.3183 0002638  31.6792 328.4358 15.08828592 36193,6917.915,95.438,541.605,537.955,0.0
52564.0,STARLINK-3959,PAYLOAD,2023-01-04 19:54:19,15.08852292,0.0002634,53.2173,300.9396,33.5432,326.5726,0.00018254,2.619e-05,0.0,0 STARLINK-3959,1 52564U 22051AH  23004.82939810  .00002619  00000-0  18254-3 0  9992,2 52564  53.2173 300.9396 0002634  33.5432 326.5726 15.08852292 36349,6917.843000000003,95.437,541.53,537.886,0.0
52564.0,STARLINK-3959,PAYLOAD,2023-01-05 07:02:01,15.08864195,0.0002628,53.2166,298.8576,33.3594,326.7563,0.00036661,5.555e-05,0.0,0 STARLINK-3959,1 52564U 22051AH  23005.29307321  .00005555  00000-0  36661-3 0  9994,2 52564  53.2166 298.8576 0002628  33.3594 326.7563 15.08864195 36342,6917.806,95.436,541.489,537.8530000000002,0.0
52564.0,STARLINK-3959,PAYLOAD,2023-01-06 11:38:57,15.08848967,0.0002505,53.2163,293.5051,6.3725,353.7298,-1.1987e-05,-4.79e-06,0.0,0 STARLINK-3959,1 52564U 22051AH  23006.48538652 -.00000479  00000-0 -11987-4 0  9996,2 52564  53.2163 293.5051 0002505   6.3725 353.7298 15.08848967 36590,6917.853,95.437,541.451,537.985,0.0
52564.0,STARLINK-3959,PAYLOAD,2023-01-07 03:32:49,15.08844384,0.0002718,53.2162,290.5304,27.649,332.4646,3.3935e-05,2.52e-06,0.0,0 STARLINK-3959,1 52564U 22051AH  23007.14778978  .00000252  00000-0  33935-4 0  9991,2 52564  53.2162 290.5304 0002718  27.6490 332.4646 15.08844384 36622,6917.866999999998,95.437,541.612,537.852,0.0
52564.0,STARLINK-3959,PAYLOAD,2023-01-07 11:29:44,15.08840358,0.0002762,53.2161,289.0431,27.129,332.9846,6.254600000000001e-05,7.07e-06,0.0,0 STARLINK-3959,1 52564U 22051AH  23007.47899173  .00000707  00000-0  62546-4 0  9993,2 52564  53.2161 289.0431 0002762  27.1290 332.9846 15.08840358 36744,6917.879,95.438,541.655,537.8340000000002,0.0
52564.0,STARLINK-3959,PAYLOAD,2023-01-08 03:23:37,15.08825414,0.0002457,53.2164,286.072,32.9136,327.2009,-6.3114e-06,-3.89e-06,0.0,0 STARLINK-3959,1 52564U 22051AH  23008.14140307 -.00000389  00000-0 -63114-5 0  9997,2 52564  53.2164 286.0720 0002457  32.9136 327.2009 15.08825414 36844,6917.925,95.438,541.49,538.09,0.0
52564.0,STARLINK-3959,PAYLOAD,2023-01-08 11:20:32,15.0883851,0.0002413,53.216,284.5852,30.413,329.7002,0.00035799,5.414e-05,0.0,0 STARLINK-3959,1 52564U 22051AH  23008.47260151  .00005414  00000-0  35799-3 0  9991,2 52564  53.2160 284.5852 0002413  30.4130 329.7002 15.08838510 36894,6917.885,95.438,541.419,538.081,0.0
52564.0,STARLINK-3959,PAYLOAD,2023-01-09 11:11:19,15.08847288,0.0002537,53.2155,280.1237,29.8758,330.2379,0.00047949,7.353e-05,0.0,0 STARLINK-3959,1 52564U 22051AH  23009.46620123  .00007353  00000-0  47949-3 0  9994,2 52564  53.2155 280.1237 0002537  29.8758 330.2379 15.08847288 36977,6917.858,95.437,541.4780000000002,537.9680000000002,0.0
52564.0,STARLINK-3959,PAYLOAD,2023-01-10 01:29:48,15.08842017,0.0002486,53.2154,277.4475,29.3552,330.7580000000001,0.0001309,1.796e-05,0.0,0 STARLINK-3959,1 52564U 22051AH  23010.06236219  .00001796  00000-0  13090-3 0  9996,2 52564  53.2154 277.4475 0002486  29.3552 330.7580 15.08842017 37132,6917.874,95.437,541.4590000000002,538.019,0.0
52564.0,STARLINK-3959,PAYLOAD,2023-01-11 10:52:53,15.08855159,0.0002625,53.2154,271.2037,32.4078,327.7074,0.00035972,5.444e-05,0.0,0 STARLINK-3959,1 52564U 22051AH  23011.45339897  .00005444  00000-0  35972-3 0  9993,2 52564  53.2154 271.2037 0002625  32.4078 327.7074 15.08855159 37349,6917.834,95.437,541.515,537.883,0.0
52564.0,STARLINK-3959,PAYLOAD,2023-01-11 20:25:12,15.08844766,0.0002396,53.2163,269.4196,20.8139,339.295,0.00017395,2.482e-05,0.0,0 STARLINK-3959,1 52564U 22051AH  23011.85083963  .00002482  00000-0  17395-3 0  9995,2 52564  53.2163 269.4196 0002396  20.8139 339.2950 15.08844766 37330,6917.866,95.437,541.388,538.073,0.0
52564.0,STARLINK-3959,PAYLOAD,2023-01-11 23:35:58,15.0885362,0.0001972,53.2141,268.8233,35.2583,324.8539,0.00034471,5.204e-05,0.0,0 STARLINK-3959,1 52564U 22051AH  23011.98331617  .00005204  00000-0  34471-3 0  9990,2 52564  53.2141 268.8233 0001972  35.2583 324.8539 15.08853620 37425,6917.839,95.437,541.068,538.34,0.0
